BRO-14                  
1 60551U 24149CM  25071.28595286  .00002970  00000+0  28078-3 0  9992
2 60551  97.7272 149.6951 0006859 188.7931 171.3170 14.94425182 30961
SATELIOT_3              
1 60552U 24149CN  25070.77156471  .00005604  00000+0  50741-3 0  9994
2 60552  97.7231 149.3108 0008117 182.8297 177.2879 14.95762493 30902
BRO-15                  
1 60553U 24149CP  25071.17301629  .00002270  00000+0  21404-3 0  9997
2 60553  97.7208 149.5066 0008201 181.1897 178.9305 14.94755221 30951
UM5-RIBAT               
1 60554U 24149CQ  25070.76520280  .00006818  00000+0  60098-3 0  9992
2 60554  97.7173 149.3368 0008982 172.2547 187.8815 14.96729020 30916
UM5-EOSAT               
1 60555U 24149CR  25070.79613610  .00005800  00000+0  50715-3 0  9991
2 60555  97.7232 149.6203 0008476 185.1837 174.9298 14.97108423 30929
LASARSAT                
1 62391U 24247Q   25070.78665058  .00022401  00000+0  98169-3 0  9993
2 62391  44.9908 287.6931 0006032 228.7837 131.2524 15.21673071 12364
CROCUBE                 
1 62394U 24247T   25070.98519982  .00023729  00000+0  10375-2 0  9998
2 62394  44.9900 286.6346 0006589 229.6754 130.3552 15.21718844 12395
